NORAD_CAT_ID,OBJECT_NAME,OBJECT_TYPE,EPOCH,MEAN_MOTION,ECCENTRICITY,INCLINATION,RA_OF_ASC_NODE,ARG_OF_PERICENTER,MEAN_ANOMALY,BSTAR,MEAN_MOTION_DOT,MEAN_MOTION_DDOT,TLE_LINE0,TLE_LINE1,TLE_LINE2,SEMIMAJOR_AXIS,PERIOD,APOGEE,PERIGEE,DECAYED
49743.0,STARLINK-3239,PAYLOAD,2022-02-04 22:00:00,15.30098704,0.0001402,53.2173,16.0972,73.1899,121.3221,-0.024079,-0.00660232,0.0,0 STARLINK-3239,1 49743U 21115V   22035.91667824 -.00660232  00000-0 -24079-1 0  9996,2 49743  53.2173  16.0972 0001402  73.1899 121.3221 15.30098704  3630,6853.655,94.112,476.48,474.559,0.0
49743.0,STARLINK-3239,PAYLOAD,2022-02-05 14:00:01,15.291040900000002,0.0001274999999999,53.2171,13.0076,68.8235,198.866,-0.02141,-0.00574796,0.0,0 STARLINK-3239,1 49743U 21115V   22036.58334491 -.00574796  00000-0 -21410-1 0  9996,2 49743  53.2171  13.0076 0001275  68.8235 198.8660 15.29104090  3611,6856.626,94.173,479.365,477.617,0.0
49743.0,STARLINK-3239,PAYLOAD,2022-02-05 22:00:01,15.28697041,0.0001299,53.2175,11.4605,76.1696,227.2888,-0.025003,-0.00656694,0.0,0 STARLINK-3239,1 49743U 21115V   22036.91668981 -.00656694  00000-0 -25003-1 0  9997,2 49743  53.2175  11.4605 0001299  76.1696 227.2888 15.28697041 11276,6857.843000000003,94.198,480.599,478.817,0.0
49743.0,STARLINK-3239,PAYLOAD,2022-02-06 14:00:01,15.27638074,0.0001073,53.2174,8.3775,55.1585,318.1509,-0.018833,-0.00483628,0.0,0 STARLINK-3239,1 49743U 21115V   22037.58335648 -.00483628  00000-0 -18833-1 0  9990,2 49743  53.2174   8.3775 0001073  55.1585 318.1509 15.27638074  3611,6861.012,94.263,483.61300000000006,482.141,0.0
49743.0,STARLINK-3239,PAYLOAD,2022-02-06 22:00:00,15.27297278,0.0001296999999999,53.2174,6.8342,62.0771,345.1538,-0.026099,-0.00656643,0.0,0 STARLINK-3239,1 49743U 21115V   22037.91667824 -.00656643  00000-0 -26099-1 0  9993,2 49743  53.2174   6.8342 0001297  62.0771 345.1538 15.27297278 11423,6862.033,94.284,484.788,483.008,0.0
49743.0,STARLINK-3239,PAYLOAD,2022-02-07 14:00:01,15.26365596,0.0001312,53.2174,3.7561,67.0419,46.6092,-0.026979,-0.00659553,0.0,0 STARLINK-3239,1 49743U 21115V   22038.58334491 -.00659553  00000-0 -26979-1 0  9998,2 49743  53.2174   3.7561 0001312  67.0419  46.6092 15.26365596  3645,6864.825,94.342,487.591,485.789,0.0
49743.0,STARLINK-3239,PAYLOAD,2022-02-07 22:00:00,15.25898753,0.0001523,53.2176,2.2176,56.0421,89.9788,-0.027319,-0.00658565,0.0,0 STARLINK-3239,1 49743U 21115V   22038.91667824 -.00658565  00000-0 -27319-1 0  9995,2 49743  53.2176   2.2176 0001523  56.0421  89.9788 15.25898753 11576,6866.225,94.371,489.136,487.044,0.0
49743.0,STARLINK-3239,PAYLOAD,2022-02-08 14:00:01,15.24966926,0.0001424,53.2174,359.1457,66.7963,142.2812,-0.028223,-0.0066123999999999,0.0,0 STARLINK-3239,1 49743U 21115V   22039.58334491 -.00661240  00000-0 -28223-1 0  9999,2 49743  53.2174 359.1457 0001424  66.7963 142.2812 15.24966926  3646,6869.022,94.428,491.865,489.909,0.0
49743.0,STARLINK-3239,PAYLOAD,2022-02-08 22:00:01,15.2439633,0.0001551999999999,53.2173,357.6116,68.4219,171.46,-0.022115,-0.00512751,0.0,0 STARLINK-3239,1 49743U 21115V   22039.91668981 -.00512751  00000-0 -22115-1 0  9996,2 49743  53.2173 357.6116 0001552  68.4219 171.4600 15.24396330 11728,6870.736,94.464,493.667,491.534,0.0
49743.0,STARLINK-3239,PAYLOAD,2022-02-09 06:00:00,15.24031537,0.0001529,53.2175,356.0792,58.6869,211.2051,-0.028838,-0.00657228,0.0,0 STARLINK-3239,1 49743U 21115V   22040.25001157 -.00657228  00000-0 -28838-1 0  9998,2 49743  53.2175 356.0792 0001529  58.6869 211.2051 15.24031537 11783,6871.831999999999,94.486,494.74800000000016,492.646,0.0
49743.0,STARLINK-3239,PAYLOAD,2022-02-09 14:15:55,15.24302463,0.000192,53.2185,354.5076,59.6145,300.5043,-0.013961,-0.00330898,0.0,0 STARLINK-3239,1 49743U 21115V   22040.59438827 -.00330898  00000-0 -13961-1 0  9995,2 49743  53.2185 354.5076 0001920  59.6145 300.5043 15.24302463 10720,6871.018,94.469,494.202,491.564,0.0
49743.0,STARLINK-3239,PAYLOAD,2022-02-10 13:53:30,15.22962619,0.0001916,53.219,349.9911,51.1772,308.9397,-0.014024,-0.00319846,0.0,0 STARLINK-3239,1 49743U 21115V   22041.57882458 -.00319846  00000-0 -14024-1 0  9998,2 49743  53.2190 349.9911 0001916  51.1772 308.9397 15.22962619 10873,6875.047,94.553,498.229,495.595,0.0
49743.0,STARLINK-3239,PAYLOAD,2022-02-10 14:00:01,15.22166555,0.000133,53.2175,349.9548,57.131,327.7267,-0.030631,-0.00660087,0.0,0 STARLINK-3239,1 49743U 21115V   22041.58335648 -.00660087  00000-0 -30631-1 0  9991,2 49743  53.2175 349.9548 0001330  57.1310 327.7267 15.22166555 11989,6877.444,94.602,500.224,498.394,0.0
49743.0,STARLINK-3239,PAYLOAD,2022-02-10 22:00:00,15.21699756,0.0001499,53.2175,348.4269,49.1501,2.9679,-0.031,-0.00658971,0.0,0 STARLINK-3239,1 49743U 21115V   22041.91667824 -.00658971  00000-0 -31000-1 0  9992,2 49743  53.2175 348.4269 0001499  49.1501   2.9679 15.21699756  3626,6878.85,94.631,501.746,499.684,0.0
49743.0,STARLINK-3239,PAYLOAD,2022-02-11 04:04:42,15.22086133,0.0001958,53.2186,347.2807,73.4436,286.6777,-0.014752,-0.00327476,0.0,0 STARLINK-3239,1 49743U 21115V   22042.16993839 -.00327476  00000-0 -14752-1 0  9996,2 49743  53.2186 347.2807 0001958  73.4436 286.6777 15.22086133 12079,6877.686,94.607,500.898,498.205,0.0
49743.0,STARLINK-3239,PAYLOAD,2022-02-11 13:32:24,15.21549762,0.0002036,53.2184,345.4758,64.2053,295.9155,-0.015115,-0.00330144,0.0,0 STARLINK-3239,1 49743U 21115V   22042.56417527 -.00330144  00000-0 -15115-1 0  9995,2 49743  53.2184 345.4758 0002036  64.2053 295.9155 15.21549762 12134,6879.302,94.64,502.568,499.767,0.0
49743.0,STARLINK-3239,PAYLOAD,2022-02-11 21:25:40,15.21073107,0.0002311,53.2187,343.9702,71.0518,289.073,-0.015383,-0.00331275,0.0,0 STARLINK-3239,1 49743U 21115V   22042.89282570 -.00331275  00000-0 -15383-1 0  9992,2 49743  53.2187 343.9702 0002311  71.0518 289.0730 15.21073107 11077,6880.739000000001,94.67,504.195,501.014,0.0
49743.0,STARLINK-3239,PAYLOAD,2022-02-11 22:00:01,15.20299424,0.00016,53.2175,343.8494,50.4526,80.3368,-0.032268,-0.00658273,0.0,0 STARLINK-3239,1 49743U 21115V   22042.91668981 -.00658273  00000-0 -32268-1 0  9990,2 49743  53.2175 343.8494 0001600  50.4526  80.3368 15.20299424 12184,6883.074000000001,94.718,506.04,503.837,0.0
49743.0,STARLINK-3239,PAYLOAD,2022-02-12 03:44:22,15.20708402,0.0001966,53.2189,342.7707,76.5525,283.5691,-0.014739,-0.00314729,0.0,0 STARLINK-3239,1 49743U 21115V   22043.15581773 -.00314729  00000-0 -14739-1 0  9998,2 49743  53.2189 342.7707 0001966  76.5525 283.5691 15.20708402 12229,6881.84,94.693,505.0580000000001,502.352,0.0
49743.0,STARLINK-3239,PAYLOAD,2022-02-12 13:12:35,15.20169272,0.0002203,53.2191,340.9671,66.2917,293.8311,-0.015611,-0.00327555,0.0,0 STARLINK-3239,1 49743U 21115V   22043.55041232 -.00327555  00000-0 -15611-1 0  9994,2 49743  53.2191 340.9671 0002203  66.2917 293.8311 15.20169272 11170,6883.467,94.726,506.848,503.815,0.0
49743.0,STARLINK-3239,PAYLOAD,2022-02-12 22:00:00,15.188991199999998,0.0001662,53.2175,339.2822,52.2803,152.0077,-0.033553,-0.00664287,0.0,0 STARLINK-3239,1 49743U 21115V   22043.91667824 -.00664287  00000-0 -33553-1 0  9996,2 49743  53.2175 339.2822 0001662  52.2803 152.0077 15.18899120 12331,6887.303000000001,94.806,510.31300000000016,508.024,0.0
49743.0,STARLINK-3239,PAYLOAD,2022-02-13 14:00:01,15.17965675,0.0001576999999999,53.2175,336.2422,52.9917,197.5345,-0.034423,-0.00663362,0.0,0 STARLINK-3239,1 49743U 21115V   22044.58334491 -.00663362  00000-0 -34423-1 0  9991,2 49743  53.2175 336.2422 0001577  52.9917 197.5345 15.17965675  3646,6890.127,94.864,513.078,510.905,0.0
49743.0,STARLINK-3239,PAYLOAD,2022-02-14 06:00:00,15.17030569,0.0001433,53.2173,333.2087,61.4778,233.0435,-0.035162,-0.00659789,0.0,0 STARLINK-3239,1 49743U 21115V   22045.25001157 -.00659789  00000-0 -35162-1 0  9995,2 49743  53.2173 333.2087 0001433  61.4778 233.0435 15.17030569 12549,6892.958000000001,94.922,515.811,513.835,0.0
49743.0,STARLINK-3239,PAYLOAD,2022-02-14 14:00:01,15.16565492,0.0001493,53.2175,331.6909,50.5591,265.1197,-0.035806,-0.00662764,0.0,0 STARLINK-3239,1 49743U 21115V   22045.58334491 -.00662764  00000-0 -35806-1 0  9993,2 49743  53.2175 331.6909 0001493  50.5591 265.1197 15.16565492  3643,6894.3669999999975,94.951,517.261,515.203,0.0
49743.0,STARLINK-3239,PAYLOAD,2022-02-14 20:00:01,15.16216993,0.0001692,53.2174,330.5547,50.3866,190.7912,-0.036271,-0.00664595,0.0,0 STARLINK-3239,1 49743U 21115V   22045.83334491 -.00664595  00000-0 -36271-1 0  9992,2 49743  53.2174 330.5547 0001692  50.3866 190.7912 15.16216993  3627,6895.4230000000025,94.973,518.455,516.122,0.0
49743.0,STARLINK-3239,PAYLOAD,2022-02-15 06:00:00,15.15519718,0.0001706999999999,53.2175,328.6655,39.6077,316.7632,-0.028075,-0.00507676,0.0,0 STARLINK-3239,1 49743U 21115V   22046.25001157 -.00507676  00000-0 -28075-1 0  9998,2 49743  53.2175 328.6655 0001707  39.6077 316.7632 15.15519718 12693,6897.538000000001,95.017,520.581,518.226,0.0
49743.0,STARLINK-3239,PAYLOAD,2022-02-15 14:00:01,15.15035707,0.0001514,53.2181,327.1511,35.0823,340.7724,-0.026939,-0.00477406,0.0,0 STARLINK-3239,1 49743U 21115V   22046.58334491 -.00477406  00000-0 -26939-1 0  9998,2 49743  53.2181 327.1511 0001514  35.0823 340.7724 15.15035707 12746,6899.007,95.047,521.9169999999998,519.828,0.0
49743.0,STARLINK-3239,PAYLOAD,2022-02-15 22:00:01,15.14700995,0.0001693,53.2175,325.6385,40.8306,353.9312,-0.037956,-0.00665949,0.0,0 STARLINK-3239,1 49743U 21115V   22046.91668981 -.00665949  00000-0 -37956-1 0  9991,2 49743  53.2175 325.6385 0001693  40.8306 353.9312 15.14700995 12790,6900.023,95.068,523.057,520.72,0.0
49743.0,STARLINK-3239,PAYLOAD,2022-02-16 14:00:01,15.13765401,0.0001648,53.2174,322.6178,41.8099,29.0369,-0.038729,-0.00661997,0.0,0 STARLINK-3239,1 49743U 21115V   22047.58334491 -.00661997  00000-0 -38729-1 0  9999,2 49743  53.2174 322.6178 0001648  41.8099  29.0369 15.13765401  3634,6902.866,95.127,525.869,523.594,0.0
